{
    "links": {
        "self": "http://www.neowsapp.com/rest/v1/neo/3555521?api_key=iIulBulltgU6a56xZRHN4H3l9WmuAYTsLGpBGhQ2"
    },
    "id": "3555521",
    "neo_reference_id": "3555521",
    "name": "(2011 BC)",
    "designation": "2011 BC",
    "nasa_jpl_url": "http://ssd.jpl.nasa.gov/sbdb.cgi?sstr=3555521",
    "absolute_magnitude_h": 24.5,
    "estimated_diameter": {
        "kilometers": {
            "estimated_diameter_min": 0.0334622374,
            "estimated_diameter_max": 0.0748238376
        },
        "meters": {
            "estimated_diameter_min": 33.4622374455,
            "estimated_diameter_max": 74.8238376074
        },
        "miles": {
            "estimated_diameter_min": 0.0207924639,
            "estimated_diameter_max": 0.0464933628
        },
        "feet": {
            "estimated_diameter_min": 109.7842471007,
            "estimated_diameter_max": 245.4850393757
        }
    },
    "is_potentially_hazardous_asteroid": false,
    "close_approach_data": [
        {
            "close_approach_date": "2011-01-06",
            "close_approach_date_full": "2011-Jan-06 09:36",
            "epoch_date_close_approach": 1294306560000,
            "relative_velocity": {
                "kilometers_per_second": "13.2856740092",
                "kilometers_per_hour": "47828.4264331279",
                "miles_per_hour": "29718.7241911844"
            },
            "miss_distance": {
                "astronomical": "0.077419009",
                "lunar": "30.115994501",
                "kilometers": "11581718.84391083",
                "miles": "7196546.381316254"
            },
            "orbiting_body": "Earth"
        }
    ],
    "orbital_data": {
        "orbit_id": "5",
        "orbit_determination_date": "2017-04-06 08:54:53",
        "first_observation_date": "2011-01-16",
        "last_observation_date": "2011-01-17",
        "data_arc_in_days": 1,
        "observations_used": 20,
        "orbit_uncertainty": "9",
        "minimum_orbit_intersection": ".0773596",
        "jupiter_tisserand_invariant": "4.613",
        "epoch_osculation": "2455578.5",
        "eccentricity": ".4085583011262806",
        "semi_major_axis": "1.406887242688833",
        "inclination": "15.59737789076445",
        "ascending_node_longitude": "298.5788435958975",
        "orbital_period": "609.519163071158",
        "perihelion_distance": ".8320917809396463",
        "perihelion_argument": "96.55901598973344",
        "aphelion_distance": "1.98168270443802",
        "perihelion_time": "2455514.938226844394",
        "mean_anomaly": "37.54145845181045",
        "mean_motion": ".5906295024197163",
        "equinox": "J2000",
        "orbit_class": {
            "orbit_class_type": "APO",
            "orbit_class_description": "Near-Earth asteroid orbits which cross the Earth’s orbit similar to that of 1862 Apollo",
            "orbit_class_range": "a (semi-major axis) > 1.0 AU; q (perihelion) < 1.017 AU"
        }
    },
    "is_sentry_object": false
}